MEAN_MOTION;ECCENTRICITY;INCLINATION;RA_OF_ASC_NODE;ARG_OF_PERICENTER;MEAN_ANOMALY;BSTAR;MEAN_MOTION_DOT;MEAN_MOTION_DDOT;TYPE
14.32742335;0.0004147;45.0337;47.0422;166.1161;193.98;5.7158E-5;1.6E-7;0;Orbcomm
14.32742367;0.0004154;45.0337;46.7146;166.4601;193.6358;5.7111E-5;1.6E-7;0;Orbcomm
14.32742753;0.0004218;45.0338;42.1281;171.1977;188.8944;5.7008E-5;1.6E-7;0;Orbcomm
14.32742881;0.0004238;45.0339;41.1453;172.2256;187.8657;5.7863E-5;1.8E-7;0;Orbcomm
14.32743216;0.0004285;45.0339;37.5416;175.8838;184.2045;5.9112E-5;2.2E-7;0;Orbcomm
14.32743504;0.0004316;45.034;36.2313;177.3476;182.7394;6.6214E-5;4.1E-7;0;Orbcomm
14.32743663;0.0004325;45.034;35.2485;178.1753;181.911;6.9515E-5;5.0E-7;0;Orbcomm
14.32743955;0.0004369;45.0341;32.6276;180.9218;179.1621;7.2109E-5;5.7E-7;0;Orbcomm
14.32744155;0.0004387;45.0341;31.3173;182.1349;177.948;7.6623E-5;7.0E-7;0;Orbcomm
14.32744748;0.0004457;45.0342;26.4033;187.0143;173.0642;8.5541E-5;9.4E-7;0;Orbcomm
14.32745016;0.0004504;45.0342;23.4547;190.025;170.0507;8.6397E-5;9.7E-7;0;Orbcomm
14.32745594;0.0004573;45.0343;19.1961;194.7962;165.2752;9.3496E-5;1.16E-6;0;Orbcomm
14.32745627;0.0004581;45.0343;18.8684;195.092;164.9791;9.3323E-5;1.16E-6;0;Orbcomm
14.32745848;0.0004595;45.0342;17.2303;195.9389;164.1314;9.6995E-5;1.26E-6;0;Orbcomm
14.32746159;0.0004649;45.0343;13.9542;199.0995;160.9678;9.5509E-5;1.22E-6;0;Orbcomm
14.32746536;0.0004697;45.0343;9.3678;203.0236;157.04;8.9892E-5;1.06E-6;0;Orbcomm
14.3274664;0.0004712;45.0343;8.0575;204.2925;155.77;8.7926E-5;1.01E-6;0;Orbcomm
14.3274683;0.0004752;45.0343;4.7814;207.2787;152.7811;7.8341E-5;7.5E-7;0;Orbcomm
14.32746964;0.0004768;45.0344;2.8159;209.1149;150.9433;7.4417E-5;6.4E-7;0;Orbcomm
14.3274718;0.0004799;45.0344;359.8676;211.7382;148.3176;6.9664E-5;5.1E-7;0;Orbcomm
14.32747225;0.0004832;45.0345;356.9193;214.4808;145.5725;5.3464E-5;6.0E-8;0;Orbcomm
14.3274735;0.0004856;45.0344;355.2813;215.8789;144.1732;5.391E-5;7.0E-8;0;Orbcomm
14.32747595;0.000489;45.0344;352.0054;218.863;141.1866;5.6111E-5;1.3E-7;0;Orbcomm
14.32747664;0.0004909;45.0344;350.6949;219.9812;140.0673;5.5031E-5;1.1E-7;0;Orbcomm
14.32747894;0.0004946;45.0344;347.419;223.064;136.982;5.7544E-5;1.7E-7;0;Orbcomm
14.32748059;0.0004965;45.0343;345.781;224.4842;135.5606;6.115E-5;2.7E-7;0;Orbcomm
14.32748129;0.0004969;45.0342;344.7983;225.3605;134.6837;6.2647E-5;3.1E-7;0;Orbcomm
14.32748329;0.0004999;45.0342;342.8326;227.2618;132.7808;6.7155E-5;4.4E-7;0;Orbcomm
14.32748507;0.0005024;45.0341;341.1946;228.6561;131.3854;7.0969E-5;5.4E-7;0;Orbcomm
14.32749148;0.0005058;45.034;336.2805;232.5629;127.4758;8.6359E-5;9.7E-7;0;Orbcomm
14.32749448;0.0005082;45.0338;332.0217;236.2007;123.8356;8.1982E-5;8.5E-7;0;Orbcomm
14.32749442;0.0005093;45.0338;331.6941;236.3949;123.6412;8.0624E-5;8.1E-7;0;Orbcomm
14.32749771;0.0005137;45.0337;327.1075;240.1956;119.838;7.3179E-5;6.0E-7;0;Orbcomm
14.32749812;0.0005134;45.0337;326.4524;240.8369;119.1964;7.1483E-5;5.6E-7;0;Orbcomm
14.32750179;0.000516;45.0336;322.1935;244.502;115.5293;6.8365E-5;4.7E-7;0;Orbcomm
14.3275088;0.0005203;45.0335;317.9346;248.5241;111.5051;8.3783E-5;9.0E-7;0;Orbcomm
14.32750936;0.0005204;45.0335;317.6069;248.785;111.2441;8.5487E-5;9.4E-7;0;Orbcomm
14.32751678;0.0005224;45.0334;313.0204;252.5546;107.473;9.8436E-5;1.3E-6;0;Orbcomm
14.32751793;0.0005222;45.0334;312.3652;253.1185;106.9089;0.00010044;1.35E-6;0;Orbcomm
14.3275205;0.0005238;45.0334;309.7442;255.333;104.6936;9.9574E-5;1.33E-6;0;Orbcomm
14.32752235;0.0005235;45.0333;308.1062;256.7554;103.2709;0.00010066;1.36E-6;0;Orbcomm
14.32752313;0.0005237;45.0333;307.4509;257.3246;102.7016;0.00010103;1.37E-6;0;Orbcomm
14.32752486;0.0005242;45.0332;304.83;259.4093;100.6163;9.6504E-5;1.25E-6;0;Orbcomm
14.32752481;0.0005247;45.0332;303.5195;260.2139;99.8115;8.9396E-5;1.05E-6;0;Orbcomm
14.32752732;0.0005259;45.033;299.2604;263.5031;96.5217;8.1832E-5;8.4E-7;0;Orbcomm
14.32752754;0.0005258;45.033;298.9328;263.7909;96.2338;8.1821E-5;8.4E-7;0;Orbcomm
14.3275278;0.0005258;45.033;298.6052;264.0551;95.9696;8.1721E-5;8.4E-7;0;Orbcomm
14.32753481;0.0005267;45.0328;291.3975;269.8551;90.1692;8.2845E-5;8.7E-7;0;Orbcomm
14.32753578;0.0005263;45.0327;290.7423;270.388;89.6363;8.3158E-5;8.8E-7;0;Orbcomm
14.32754032;0.0005259;45.0326;286.4832;274.011;86.0136;8.3835E-5;9.0E-7;0;Orbcomm
14.32754761;0.000525;45.0326;281.5689;277.857;82.168;9.1252E-5;1.1E-6;0;Orbcomm
14.32755408;0.0005232;45.0326;276.327;282.1243;77.9018;9.3028E-5;1.15E-6;0;Orbcomm
14.32755927;0.0005214;45.0326;271.0851;286.7258;73.3017;9.236E-5;1.13E-6;0;Orbcomm
14.32755937;0.0005215;45.0326;270.7574;286.9892;73.0383;9.1197E-5;1.1E-6;0;Orbcomm
14.3275625;0.0005193;45.0327;266.1708;290.9938;69.0353;8.5686E-5;9.5E-7;0;Orbcomm
14.32756274;0.0005192;45.0327;265.8432;291.2622;68.767;8.5219E-5;9.3E-7;0;Orbcomm
14.327564;0.0005179;45.0326;262.8946;293.7901;66.2402;7.9039E-5;7.7E-7;0;Orbcomm
14.32756539;0.0005149;45.0326;258.6356;297.4324;62.5999;6.9503E-5;5.0E-7;0;Orbcomm
14.32756719;0.0005127;45.0326;257.3251;298.8522;61.181;7.2461E-5;5.8E-7;0;Orbcomm
14.32756947;0.000509;45.0325;252.0833;303.1434;56.8924;6.1364E-5;2.8E-7;0;Orbcomm
14.32757126;0.0005067;45.0325;249.1348;305.6809;54.3566;5.5813E-5;1.3E-7;0;Orbcomm
14.32757611;0.0005021;45.0325;244.2205;309.7559;50.2845;5.7897E-5;1.8E-7;0;Orbcomm
14.32757825;0.0005003;45.0325;242.5825;311.2272;48.8143;6.2059E-5;3.0E-7;0;Orbcomm
14.32758208;0.0004962;45.0325;238.3234;314.7742;45.27;6.4011E-5;3.5E-7;0;Orbcomm
14.32758242;0.0004959;45.0325;237.9958;315.0645;44.9799;6.4175E-5;3.6E-7;0;Orbcomm
14.32758684;0.0004902;45.0325;233.4091;318.9774;41.0703;7.0425E-5;5.3E-7;0;Orbcomm
14.32758938;0.0004868;45.0325;230.4605;321.4339;38.6159;7.2774E-5;5.9E-7;0;Orbcomm
14.3275934;0.0004815;45.0326;225.8739;325.4064;34.6469;7.7832E-5;7.3E-7;0;Orbcomm
14.32759743;0.0004753;45.0326;221.2873;329.4548;30.6021;8.1749E-5;8.4E-7;0;Orbcomm
14.32760012;0.0004707;45.0326;217.6837;332.7964;27.2635;8.037E-5;8.0E-7;0;Orbcomm
14.3276011;0.0004683;45.0326;216.7009;333.8809;26.1801;7.9693E-5;7.8E-7;0;Orbcomm
14.32760508;0.0004605;45.0326;211.4592;338.7278;21.3376;7.2188E-5;5.8E-7;0;Orbcomm
14.32760641;0.0004589;45.0325;210.1487;340.069;19.9976;7.1603E-5;5.6E-7;0;Orbcomm
14.32760962;0.000451;45.0324;205.5623;344.3616;15.7091;6.2691E-5;3.2E-7;0;Orbcomm
14.32761239;0.0004434;45.0323;200.9757;348.7306;11.3441;5.524E-5;1.1E-7;0;Orbcomm
14.327614;0.0004404;45.0323;198.6824;350.8852;9.1914;5.4698E-5;1.0E-7;0;Orbcomm
14.32761493;0.0004363;45.0322;196.7168;352.7162;7.3621;5.3138E-5;5.0E-8;0;Orbcomm
14.32761681;0.0004297;45.0322;192.7854;356.6242;3.4575;5.1026E-5;-1.0E-8;0;Orbcomm
14.32761929;0.0004219;45.032;187.8712;1.5342;358.5517;5.3862E-5;7.0E-8;0;Orbcomm
14.32762244;0.0004153;45.0319;183.2845;6.2761;353.8137;6.1433E-5;2.8E-7;0;Orbcomm
14.32762417;0.0004099;45.0319;180.0082;9.6754;350.4171;6.2342E-5;3.1E-7;0;Orbcomm
14.32762525;0.0004084;45.0319;178.6979;11.0592;349.0344;6.4232E-5;3.6E-7;0;Orbcomm
14.32762832;0.0004014;45.0318;173.7836;16.3277;343.7698;6.2224E-5;3.0E-7;0;Orbcomm
14.32762861;0.0004009;45.0318;173.456;16.6852;343.4126;6.2308E-5;3.0E-7;0;Orbcomm
14.32763242;0.0003948;45.0318;168.8694;21.6187;338.4826;6.0607E-5;2.6E-7;0;Orbcomm
14.32763614;0.0003883;45.0317;163.9551;27.0146;333.0903;5.5256E-5;1.1E-7;0;Orbcomm
14.32764031;0.0003819;45.0317;159.3684;32.2106;327.8973;5.5724E-5;1.2E-7;0;Orbcomm
14.32764237;0.0003782;45.0317;156.7474;35.1554;324.9542;5.5287E-5;1.1E-7;0;Orbcomm
14.32764671;0.0003717;45.0316;151.833;40.9694;319.1431;5.9418E-5;2.2E-7;0;Orbcomm
14.32764784;0.0003707;45.0316;150.5226;42.5595;317.5539;6.1778E-5;2.9E-7;0;Orbcomm
14.3276514;0.0003657;45.0315;145.9358;48.0643;312.0514;6.5876E-5;4.0E-7;0;Orbcomm
14.32765164;0.0003654;45.0315;145.6082;48.4576;311.6584;6.5958E-5;4.0E-7;0;Orbcomm
14.32765534;0.0003621;45.0315;141.0214;54.0938;306.0245;7.0283E-5;5.2E-7;0;Orbcomm
14.3276607;0.0003593;45.0315;136.4346;59.7471;300.3731;7.9821E-5;7.9E-7;0;Orbcomm
14.32766255;0.0003566;45.0316;133.1583;63.9554;296.1659;7.2167E-5;5.8E-7;0;Orbcomm
14.32766616;0.0003549;45.0317;129.5544;68.4533;291.6692;7.3071E-5;6.0E-7;0;Orbcomm
14.32766732;0.0003546;45.0317;128.2439;70.2129;289.9099;7.2142E-5;5.7E-7;0;Orbcomm
14.32766818;0.0003546;45.0317;127.2611;71.4483;288.6748;7.165E-5;5.6E-7;0;Orbcomm
14.32767242;0.0003529;45.0319;122.3468;77.8342;282.29;6.6788E-5;4.3E-7;0;Orbcomm
14.32767443;0.0003519;45.032;120.0534;80.7892;279.3352;6.6144E-5;4.1E-7;0;Orbcomm
14.32767657;0.0003517;45.0321;117.7601;83.884;276.2407;6.5165E-5;3.8E-7;0;Orbcomm
14.32767948;0.0003523;45.0323;114.4839;88.0667;272.0583;6.6395E-5;4.2E-7;0;Orbcomm
14.32768045;0.0003526;45.0323;113.1734;89.699;270.4261;6.6329E-5;4.1E-7;0;Orbcomm
14.32768247;0.0003529;45.0324;109.5696;94.513;265.612;6.1823E-5;2.9E-7;0;Orbcomm
14.32768663;0.0003569;45.0325;104;101.5984;258.5263;6.3222E-5;3.3E-7;0;Orbcomm
14.32769007;0.0003601;45.0326;99.4133;107.553;252.571;6.3067E-5;3.3E-7;0;Orbcomm
14.32769159;0.0003615;45.0327;97.1199;110.4651;249.6584;6.164E-5;2.9E-7;0;Orbcomm
14.32769454;0.0003676;45.0329;91.8779;117.0575;243.0647;5.4128E-5;8.0E-8;0;Orbcomm
14.32769473;0.0003691;45.033;90.8951;118.3029;241.819;5.1945E-5;2.0E-8;0;Orbcomm
14.32769507;0.0003696;45.033;90.2399;119.0707;241.051;5.0804E-5;-1.0E-8;0;Orbcomm
14.32769686;0.0003726;45.0331;87.2913;122.8516;237.269;4.7963E-5;-9.0E-8;0;Orbcomm
14.32769768;0.0003756;45.0332;85.3257;125.1926;234.9272;4.5483E-5;-1.6E-7;0;Orbcomm
14.3277018;0.0003856;45.0336;78.1181;133.9481;226.1684;4.5134E-5;-1.7E-7;0;Orbcomm
14.3277059;0.0003933;45.0338;73.2041;139.7923;220.3215;5.2923E-5;5.0E-8;0;Orbcomm
14.32770698;0.0003947;45.0338;72.2214;140.8182;219.2951;5.6366E-5;1.4E-7;0;Orbcomm
14.32771038;0.0004014;45.0339;68.6176;144.995;215.1161;6.3579E-5;3.4E-7;0;Orbcomm
14.32771242;0.0004043;45.0339;66.9797;146.7823;213.3278;6.9522E-5;5.0E-7;0;Orbcomm
14.32771429;0.0004097;45.034;64.0312;150.1644;209.9436;6.8453E-5;4.7E-7;0;Orbcomm
14.32771764;0.0004174;45.034;59.4449;155.2619;204.8428;6.7271E-5;4.4E-7;0;Orbcomm
